0 FAST
1 24285U 96049A   13282.45566088  .00006877  00000-0  58710-3 0  8718
2 24285 082.9693 340.7943 1942548 029.6753 340.1515 11.38334042696565
0 FAST
1 24285U 96049A   13283.77379855  .00006786  00000-0  57964-3 0  8728
2 24285 082.9694 340.1179 1942452 027.1181 341.9114 11.38345694696719
0 FAST
1 24285U 96049A   13286.14640085  .00005684  00000-0  48483-3 0  8742
2 24285 082.9697 338.9008 1942379 022.5173 345.0491 11.38374134696989
0 FAST
1 24285U 96049A   13287.46448400  .00007644  00000-0  65310-3 0  8752
2 24285 082.9695 338.2251 1942348 019.9626 346.7775 11.38382651697133
0 FAST
1 24285U 96049A   13288.60680971  .00007290  00000-0  62270-3 0  8760
2 24285 082.9689 337.6391 1942255 017.7483 348.2685 11.38404278697269
0 FAST
1 24285U 96049A   13289.74911348  .00008004  00000-0  68430-3 0  8770
2 24285 082.9681 337.0528 1942163 015.5337 349.7539 11.38417483697399
0 FAST
1 24285U 96049A   13291.15500634  .00007423  00000-0  63498-3 0  8784
2 24285 082.9673 336.3314 1942003 012.8073 351.5759 11.38436912697545
0 FAST
1 24285U 96049A   13292.47300666  .00006862  00000-0  58729-3 0  8791
2 24285 082.9667 335.6548 1941862 010.2490 353.2801 11.38453848697696
0 FAST
1 24285U 96049A   13293.61525730  .00007998  00000-0  68529-3 0  8801
2 24285 082.9663 335.0682 1941767 008.0317 354.7536 11.38465500697826
0 FAST
1 24285U 96049A   13295.02108596  .00007065  00000-0  60554-3 0  8811
2 24285 082.9661 334.3461 1941614 005.3022 356.5642 11.38486295697984
0 FAST
1 24285U 96049A   13296.16330334  .00008206  00000-0  70381-3 0  8822
2 24285 082.9663 333.7595 1941555 003.0844 358.0335 11.38498682698113
